KUIPER-00044            
1 64505U 25134F   25201.91668981  .00036122  00000+0  13739-2 0  9991
2 64505  51.8666 199.0145 0010729 213.0908 264.6556 15.26381124  4983
KUIPER-00046            
1 64506U 25134G   25201.48318593 -.00190043  00000+0 -58081-2 0  9999
2 64506  51.8654 200.8616 0009663 208.0852 151.9613 15.34027766  5398
KUIPER-00047            
1 64507U 25134H   25201.29330645  .00014044  00000+0  42913-3 0  9993
2 64507  51.8613 201.8281 0010083 223.0854 136.9343 15.34101908  5361
KUIPER-00048            
1 64508U 25134J   25201.71487152  .00018172  00000+0  51737-3 0  9997
2 64508  51.8758 199.4354 0002736 192.3636 167.7284 15.36163174  5436
KUIPER-00049            
1 64509U 25134K   25201.73118872  .00019790  00000+0  57908-3 0  9993
2 64509  51.8712 199.5361 0006655 206.0826 153.9825 15.35229310  5436
KUIPER-00050            
1 64510U 25134L   25201.27799390  .00014379  00000+0  42628-3 0  9995
2 64510  51.8712 201.7490 0007260 203.5543 156.5111 15.35061155  5368
KUIPER-00051            
1 64511U 25134M   25201.72544333  .00019813  00000+0  57645-3 0  9994
2 64511  51.8726 199.5009 0005269 197.2550 162.8258 15.35414793  5438
KUIPER-00052            
1 64512U 25134N   25199.04127448 -.00143739  00000+0 -38936-2 0  9998
2 64512  51.8758 212.2683 0004898 196.0169 164.0664 15.37613806  5023
